{
  "norad_id": 63635,
  "name": "STARLINK-33854",
  "history": [
    {
      "epoch": "2026-03-28T19:27:24.950016Z",
      "apogee_km": 484.21535106526335,
      "perigee_km": 481.65877764740344,
      "latitude_deg": 8.055719680655334e-06,
      "longitude_deg": 138.93974655485187,
      "height_km": 482.5491685734999,
      "semi_major_axis_km": 6861.074064356333,
      "eccentricity": 0.00018631,
      "inclination_deg": 43.0008,
      "raan_deg": 257.0195,
      "arg_perigee_deg": 277.4192,
      "mean_anomaly_deg": 82.6448,
      "mean_motion_rev_day": 15.27617415
    },
    {
      "epoch": "2026-03-29T22:08:03.980256Z",
      "apogee_km": 484.22255960432267,
      "perigee_km": 481.662965188164,
      "latitude_deg": 1.708064513676835e-06,
      "longitude_deg": 91.404607841151,
      "height_km": 482.6793418084096,
      "semi_major_axis_km": 6861.0797623962435,
      "eccentricity": 0.00018653,
      "inclination_deg": 43.0009,
      "raan_deg": 250.7426,
      "arg_perigee_deg": 271.8177,
      "mean_anomaly_deg": 88.2461,
      "mean_motion_rev_day": 15.27615512
    },
    {
      "epoch": "2026-03-30T10:41:19.855680Z",
      "apogee_km": 484.001189764278,
      "perigee_km": 482.032450287159,
      "latitude_deg": -2.6683394847793098e-05,
      "longitude_deg": -100.38246077374517,
      "height_km": 482.91075533498866,
      "semi_major_axis_km": 6861.153820025718,
      "eccentricity": 0.00014347,
      "inclination_deg": 43.0001,
      "raan_deg": 247.7873,
      "arg_perigee_deg": 263.1611,
      "mean_anomaly_deg": 96.9077,
      "mean_motion_rev_day": 15.27590779
    }
  ]
}